IRIDIUM 7               
1 24793U 97020B   25211.38170805  .00000391  00000+0  12804-3 0  9996
2 24793  86.4012 158.8267 0002175  78.4328 281.7112 14.35964592478315
IRIDIUM 5               
1 24795U 97020D   25211.56307220  .00003164  00000+0  25756-3 0  9992
2 24795  86.3851  63.7177 0107416 343.9319  15.8511 14.94665292491971
IRIDIUM 4               
1 24796U 97020E   25210.92021958  .00000401  00000+0  12896-3 0  9995
2 24796  86.4008 155.8724 0002333  83.3397 276.8066 14.36865858478606
IRIDIUM 914             
1 24836U 97030A   25211.35933839  .00000446  00000+0  13297-3 0  9994
2 24836  86.3987 164.1546 0003851  82.6547 277.5090 14.40901616475448
IRIDIUM 16              
1 24841U 97030F   25210.89715766  .00000374  00000+0  11559-3 0  9994
2 24841  86.4064 187.3413 0000684  12.0610 348.0604 14.38738271473142
IRIDIUM 911             
1 24842U 97030G   25210.90264684  .00000576  00000+0  15062-3 0  9992
2 24842  86.4490 186.0637 0012725 323.1644  36.8684 14.47676807481248
IRIDIUM 17              
1 24870U 97034B   25210.77149040  .00000382  00000+0  12012-3 0  9997
2 24870  86.3946 216.8459 0001271 135.3027 224.8273 14.37854313469709
IRIDIUM 920             
1 24871U 97034C   25210.91311959  .00000402  00000+0  11759-3 0  9994
2 24871  86.3993 195.9302 0009715 308.1912  51.8412 14.41561260472731
